{
    "links": {
        "self": "http://www.neowsapp.com/rest/v1/neo/3771612?api_key=iIulBulltgU6a56xZRHN4H3l9WmuAYTsLGpBGhQ2"
    },
    "id": "3771612",
    "neo_reference_id": "3771612",
    "name": "(2017 FA1)",
    "designation": "2017 FA1",
    "nasa_jpl_url": "http://ssd.jpl.nasa.gov/sbdb.cgi?sstr=3771612",
    "absolute_magnitude_h": 23.8,
    "estimated_diameter": {
        "kilometers": {
            "estimated_diameter_min": 0.046190746,
            "estimated_diameter_max": 0.1032856481
        },
        "meters": {
            "estimated_diameter_min": 46.1907460282,
            "estimated_diameter_max": 103.2856480504
        },
        "miles": {
            "estimated_diameter_min": 0.0287015901,
            "estimated_diameter_max": 0.0641787064
        },
        "feet": {
            "estimated_diameter_min": 151.544447199,
            "estimated_diameter_max": 338.8636855496
        }
    },
    "is_potentially_hazardous_asteroid": false,
    "close_approach_data": [
        {
            "close_approach_date": "2017-03-13",
            "close_approach_date_full": "2017-Mar-13 16:31",
            "epoch_date_close_approach": 1489422660000,
            "relative_velocity": {
                "kilometers_per_second": "14.1593059885",
                "kilometers_per_hour": "50973.5015586907",
                "miles_per_hour": "31672.951565732"
            },
            "miss_distance": {
                "astronomical": "0.0736335522",
                "lunar": "28.6434518058",
                "kilometers": "11015422.569653814",
                "miles": "6844666.1933940732"
            },
            "orbiting_body": "Earth"
        }
    ],
    "orbital_data": {
        "orbit_id": "7",
        "orbit_determination_date": "2017-04-06 08:19:27",
        "first_observation_date": "2017-03-18",
        "last_observation_date": "2017-04-01",
        "data_arc_in_days": 14,
        "observations_used": 50,
        "orbit_uncertainty": "8",
        "minimum_orbit_intersection": ".0256454",
        "jupiter_tisserand_invariant": "3.706",
        "epoch_osculation": "2457838.5",
        "eccentricity": ".5490024146260394",
        "semi_major_axis": "1.929352037496728",
        "inclination": "7.54342397864398",
        "ascending_node_longitude": "356.919222852195",
        "orbital_period": "978.8488702481552",
        "perihelion_distance": ".8701331102473553",
        "perihelion_argument": "118.496864027665",
        "aphelion_distance": "2.9885709647461",
        "perihelion_time": "2457786.568951827936",
        "mean_anomaly": "19.09914585405149",
        "mean_motion": ".3677789400816632",
        "equinox": "J2000",
        "orbit_class": {
            "orbit_class_type": "APO",
            "orbit_class_description": "Near-Earth asteroid orbits which cross the Earth’s orbit similar to that of 1862 Apollo",
            "orbit_class_range": "a (semi-major axis) > 1.0 AU; q (perihelion) < 1.017 AU"
        }
    },
    "is_sentry_object": false
}